[{"OBJECT_NAME":"STARLINK-5454","OBJECT_ID":"2022-175S","EPOCH":"2026-03-09T03:44:56.674464","MEAN_MOTION":15.08837878,"ECCENTRICITY":0.00015481,"INCLINATION":53.2177,"RA_OF_ASC_NODE":31.1971,"ARG_OF_PERICENTER":88.48,"MEAN_ANOMALY":271.637,"EPHEMERIS_TYPE":0,"CLASSIFICATION_TYPE":"U","NORAD_CAT_ID":54774,"ELEMENT_SET_NO":999,"REV_AT_EPOCH":18005,"BSTAR":6.5006942e-5,"MEAN_MOTION_DOT":7.47e-6,"MEAN_MOTION_DDOT":0},{"OBJECT_NAME":"JILIN-01 KUANFU 02B 6","OBJECT_ID":"2024-169F","EPOCH":"2026-03-09T21:43:38.712288","MEAN_MOTION":15.09238946,"ECCENTRICITY":0.00150747,"INCLINATION":97.5549,"RA_OF_ASC_NODE":159.9459,"ARG_OF_PERICENTER":324.4254,"MEAN_ANOMALY":35.5968,"EPHEMERIS_TYPE":0,"CLASSIFICATION_TYPE":"U","NORAD_CAT_ID":61194,"ELEMENT_SET_NO":999,"REV_AT_EPOCH":8086,"BSTAR":0.00036442477,"MEAN_MOTION_DOT":5.751e-5,"MEAN_MOTION_DDOT":0}]
